STARLINK-4027           
1 52601U 22052D   22146.25001157 -.00066386  00000+0 -47144-3 0  9994
2 52601  53.2148  23.1476 0001021  86.6306 311.3591 15.73244085  2188
STARLINK-4012           
1 52602U 22052E   22145.91667824 -.00026561  00000+0 -18542-3 0  9997
2 52602  53.2155  24.7967 0001175 107.0856 202.6551 15.73201519  2124
STARLINK-4016           
1 52603U 22052F   22146.16667824  .00055521  00000+0  39768-3 0  9995
2 52603  53.2149  23.5529 0000860 105.1556 184.1679 15.73183146  2169
STARLINK-4013           
1 52604U 22052G   22145.86185186  .00019545  00000+0  14331-3 0  9993
2 52604  53.2162  25.0641 0001609 121.9728 238.1448 15.73206861  1754
STARLINK-4000           
1 52605U 22052H   22145.86144100  .00051067  00000+0  36446-3 0  9991
2 52605  53.2160  25.0602 0001010 106.5305 253.5826 15.73302936  1757
STARLINK-3928           
1 52606U 22052J   22146.16667824  .00083032  00000+0  59122-3 0  9992
2 52606  53.2151  23.5561 0001072 100.5467 187.6092 15.73159502  2163
STARLINK-3947           
1 52607U 22052K   22146.16667824 -.00818939  00000+0 -64540-2 0  9996
2 52607  53.2172  23.5415 0001334 135.2049 156.2935 15.73088662  2163
STARLINK-3979           
1 52608U 22052L   22145.86132630  .00027624  00000+0  20036-3 0  9999
2 52608  53.2159  25.0600 0000931 125.5382 234.5725 15.73227082  1758
STARLINK-3997           
1 52609U 22052M   22145.86091192  .00049450  00000+0  35505-3 0  9995
2 52609  53.2154  25.0549 0001674 144.4565 215.6567 15.73175010  1751
STARLINK-3998           
1 52610U 22052N   22146.16667824 -.00818221  00000+0 -64493-2 0  9991
2 52610  53.2172  23.5425 0001362 132.9504 157.9508 15.73082949  2165
STARLINK-3980           
1 52611U 22052P   22146.25001157 -.00832226  00000+0 -66111-2 0  9993
2 52611  53.2171  23.1246 0001122 124.2380 281.2217 15.72943518  2189
STARLINK-4002           
1 52612U 22052Q   22146.16667824 -.00027402  00000+0 -19132-3 0  9997
2 52612  53.2150  23.5467 0000953 103.7866 188.5091 15.73218216  2166
STARLINK-3921           
1 52613U 22052R   22145.86058168  .00020756  00000+0  15162-3 0  9991
2 52613  53.2150  25.0490 0001223 105.2570 254.8586 15.73248907  1750
STARLINK-3982           
1 52614U 22052S   22146.16667824  .00053707  00000+0  38609-3 0  9994
2 52614  53.2148  23.5431 0001052  96.8953 197.2141 15.73111572  2166
STARLINK-4011           
1 52615U 22052T   22146.16667824 -.00838761  00000+0 -66272-2 0  9994
2 52615  53.2172  23.5321 0001262 130.0839 166.1728 15.73085780  2166
STARLINK-4015           
1 52616U 22052U   22146.16667824  .00009144  00000+0  69402-4 0  9998
2 52616  53.2147  23.5410 0001006 100.3674 194.8802 15.73230705  2161
STARLINK-3996           
1 52617U 22052V   22146.16667824  .00092612  00000+0  65827-3 0  9997
2 52617  53.2144  23.5335 0001059 101.7491 196.5347 15.73155994  2164
STARLINK-3983           
1 52618U 22052W   22146.16667824  .00004384  00000+0  35633-4 0  9990
2 52618  53.2147  23.5389 0000878 108.0827 187.8452 15.73200812  2168
STARLINK-3741           
1 52619U 22052X   22145.85987034  .00005093  00000+0  40752-4 0  9990
2 52619  53.2156  25.0481 0000540 147.4084 212.6970 15.73153537  1743
STARLINK-3975           
1 52620U 22052Y   22145.86016676  .00047118  00000+0  33679-3 0  9991
2 52620  53.2149  25.0500 0001121 125.3302 234.7823 15.73301889  1740
STARLINK-3984           
1 52621U 22052Z   22146.25001157  .00044997  00000+0  32351-3 0  9992
2 52621  53.2142  23.1154 0000719 112.0496 300.7776 15.73185313  2189
STARLINK-4008           
1 52622U 22052AA  22146.16667824 -.00817741  00000+0 -64449-2 0  9991
2 52622  53.2172  23.5354 0001341 135.6381 161.8165 15.73083993  2162
STARLINK-3986           
1 52623U 22052AB  22146.16667824 -.00018567  00000+0 -12807-3 0  9993
2 52623  53.2142  23.5256 0001053 106.2268 195.6251 15.73218169  2165
STARLINK-4009           
1 52624U 22052AC  22146.16667824 -.00015866  00000+0 -10882-3 0  9994
2 52624  53.2145  23.5310 0000962 110.6711 188.8136 15.73206295  2163
STARLINK-3988           
1 52625U 22052AD  22145.85922039  .00024175  00000+0  17600-3 0  9998
2 52625  53.2152  25.0437 0001059 114.8953 245.2177 15.73222288  1747
STARLINK-3990           
1 52626U 22052AE  22145.85963196  .00037516  00000+0  26985-3 0  9997
2 52626  53.2154  25.0463 0000894 138.1581 221.9507 15.73258744  1745
STARLINK-3992           
1 52627U 22052AF  22146.16667824  .00077977  00000+0  55544-3 0  9990
2 52627  53.2142  23.5205 0000799 114.1455 190.1037 15.73175922  2166
STARLINK-4001           
1 52628U 22052AG  22146.25001157 -.00832096  00000+0 -66149-2 0  9997
2 52628  53.2172  23.1160 0001217 131.8187 281.3760 15.72925381  2189
STARLINK-4022           
1 52629U 22052AH  22146.16667824  .00068341  00000+0  48878-3 0  9999
2 52629  53.2142  23.5195 0000530 110.5200 194.3053 15.73133779  2165
STARLINK-3989           
1 52630U 22052AJ  22146.25001157 -.00048315  00000+0 -34151-3 0  9992
2 52630  53.2142  23.1105 0001022 105.4844 309.7726 15.73220871  2189
STARLINK-3794           
1 52631U 22052AK  22146.16667824  .00039648  00000+0  28546-3 0  9990
2 52631  53.2141  23.5169 0001109  95.8784 210.0264 15.73209564  2169
STARLINK-3995           
1 52632U 22052AL  22146.16667824  .00089970  00000+0  64039-3 0  9991
2 52632  53.2143  23.5229 0000956 108.8662 194.7252 15.73134989  2161
STARLINK-3994           
1 52633U 22052AM  22146.16667824  .00062133  00000+0  44478-3 0  9999
2 52633  53.2139  23.5133 0001030 101.5639 206.2103 15.73150961  2161
STARLINK-3974           
1 52634U 22052AN  22146.16667824 -.00025570  00000+0 -17824-3 0  9991
2 52634  53.2143  23.5183 0001172 100.3655 205.1138 15.73210973  2160
STARLINK-3978           
1 52635U 22052AP  22146.16667824 -.00073618  00000+0 -52401-3 0  9998
2 52635  53.2140  23.5109 0001071 101.7235 207.1960 15.73231581  2166
STARLINK-3967           
1 52636U 22052AQ  22146.16667824  .00000422  00000+0  74166-5 0  9994
2 52636  53.2142  23.5164 0001073  99.5386 207.0887 15.73205108  2166
STARLINK-3961           
1 52637U 22052AR  22145.85795669  .00056346  00000+0  40126-3 0  9992
2 52637  53.2143  25.0340 0001902 153.7189 206.3928 15.73312154  2557
STARLINK-3941           
1 52638U 22052AS  22145.85840185  .00062661  00000+0  44599-3 0  9992
2 52638  53.2151  25.0392 0000870 102.8788 257.2330 15.73282128  2556
STARLINK-3968           
1 52639U 22052AT  22146.16667824 -.00084052  00000+0 -59893-3 0  9998
2 52639  53.2138  23.5052 0000929 103.7212 207.7070 15.73260028  2168
STARLINK-3977           
1 52640U 22052AU  22145.85816773  .00053385  00000+0  38074-3 0  9995
2 52640  53.2151  25.0370 0001347 141.0554 219.0564 15.73300444  1748
STARLINK-3991           
1 52641U 22052AV  22145.91667824  .00019000  00000+0  13970-3 0  9998
2 52641  53.2142  24.7406 0001358 109.9282 225.3342 15.73164080  2129
STARLINK-3971           
1 52642U 22052AW  22145.85784884  .00046652  00000+0  33358-3 0  9993
2 52642  53.2151  25.0339 0000908 123.4156 236.6951 15.73297672  1742
STARLINK-3963           
1 52643U 22052AX  22146.16667824 -.00018046  00000+0 -12436-3 0  9995
2 52643  53.2137  23.5003 0000990  99.9875 213.7901 15.73215246  2169
STARLINK-3985           
1 52644U 22052AY  22146.16667824 -.00012793  00000+0 -86863-4 0  9995
2 52644  53.2140  23.5070 0001297 104.8160 205.9719 15.73201633  2167
STARLINK-3973           
1 52645U 22052AZ  22145.85710822  .00046273  00000+0  33129-3 0  9992
2 52645  53.2145  25.0288 0000830 119.2533 240.8570 15.73271332  1746
STARLINK-3832           
1 52646U 22052BA  22145.85741243  .00030615  00000+0  22099-3 0  9991
2 52646  53.2147  25.0293 0001442 153.3480 206.7614 15.73281320  1754
STARLINK-3846           
1 52647U 22052BB  22146.16667824  .00085695  00000+0  61076-3 0  9995
2 52647  53.2136  23.4962 0001049 107.3281 208.2751 15.73124263  2166
STARLINK-3854           
1 52648U 22052BC  22145.85731098  .00062417  00000+0  44401-3 0  9996
2 52648  53.2152  25.0308 0000865 146.5592 213.5483 15.73296812  1746
STARLINK-3868           
1 52649U 22052BD  22145.85699308  .00045737  00000+0  32740-3 0  9993
2 52649  53.2144  25.0281 0000690 155.9761 204.1292 15.73280446  1757
STARLINK-3891           
1 52650U 22052BE  22146.16667824  .00017057  00000+0  12572-3 0  9993
2 52650  53.2138  23.4961 0001032  94.8620 221.3087 15.73196028  2166
FALCON 9 DEB            
1 52651U 22052BF  22146.05455490  .00235583  31762-4  70953-3 0  9993
2 52651  53.2094  23.3783 0013043 291.1491  68.8142 15.91669921  1782
FALCON 9 DEB            
1 52652U 22052BG  22146.05145654  .00256465  35847-4  74589-3 0  9991
2 52652  53.2097  23.3596 0013399 299.9673  60.0024 15.92309788  1786
FALCON 9 DEB            
1 52653U 22052BH  22146.04365633  .00273823  39851-4  74701-3 0  9994
2 52653  53.2117  23.3134 0009258 293.1634  66.8419 15.93596206  1786
FALCON 9 DEB            
1 52654U 22052BJ  22146.04102431  .00131496  17774-4  35620-3 0  9996
2 52654  53.2126  23.2984 0008653 306.7530  53.2703 15.93990213  1785
STARLINK-4004           
1 52656U 22053A   22146.25001157 -.00876006  00000+0 -59201-2 0  9999
2 52656  53.2172 259.1892 0001611  38.7458 145.3032 15.76744562  2058
STARLINK-4084           
1 52657U 22053B   22146.25001157 -.00876105  00000+0 -59353-2 0  9998
2 52657  53.2172 259.1911 0001662  37.2152 145.4150 15.76689456  2357
STARLINK-4082           
1 52658U 22053C   22145.91667824 -.00876270  00000+0 -57619-2 0  9996
2 52658  53.2171 260.8504 0001391  40.5896  49.4296 15.77358412  1309
STARLINK-3960           
1 52659U 22053D   22145.91667824 -.00876211  00000+0 -57680-2 0  9990
2 52659  53.2171 260.8507 0001460  37.3356  52.2911 15.77332568  1305
STARLINK-4081           
1 52660U 22053E   22145.91667824 -.00876150  00000+0 -57507-2 0  9992
2 52660  53.2171 260.8486 0001595  32.4932  58.4152 15.77396398  1304
